0 COSMOS 1275
1 12504U 81053A   13281.85178278  .00000071  00000-0  58820-4 0   356
2 12504 082.9580 086.1224 0040940 137.1363 331.6411 13.74213509622903
0 COSMOS 1275
1 12504U 81053A   13283.09528920  .00000067  00000-0  54726-4 0   364
2 12504 082.9580 085.2044 0041021 133.7309 003.4168 13.74213874623073
0 COSMOS 1275
1 12504U 81053A   13286.08049830  .00000022  00000-0  66651-5 0   388
2 12504 082.9585 083.0005 0041130 125.6491 011.5142 13.74214320623488
0 COSMOS 1275
1 12504U 81053A   13287.52174413  .00000016  00000-0  71004-6 0   397
2 12504 082.9588 081.9366 0041116 121.7920 301.4440 13.74214498623686
0 COSMOS 1275
1 12504U 81053A   13288.84137365  .00000032  00000-0  17263-4 0   403
2 12504 082.9592 080.9625 0041136 118.2343 349.7583 13.74214512623860
0 COSMOS 1275
1 12504U 81053A   13289.86121088  .00000027  00000-0  11682-4 0   415
2 12504 082.9594 080.2098 0041137 115.4998 354.9607 13.74214398624009
0 COSMOS 1275
1 12504U 81053A   13291.03056230  .00000040  00000-0  25584-4 0   425
2 12504 082.9596 079.3467 0041158 112.3359 019.8484 13.74214431624165
0 COSMOS 1275
1 12504U 81053A   13292.05097669  .00000057  00000-0  43144-4 0   430
2 12504 082.9597 078.5936 0041167 109.5864 027.9198 13.74214395624304
0 COSMOS 1275
1 12504U 81053A   13293.49209571  .00000070  00000-0  57044-4 0   446
2 12504 082.9599 077.5301 0041162 105.7022 317.2510 13.74214489624509
0 COSMOS 1275
1 12504U 81053A   13294.50775957  .00000071  00000-0  58705-4 0   452
2 12504 082.9600 076.7805 0041202 102.9762 301.8104 13.74214603624648
0 COSMOS 1275
1 12504U 81053A   13295.53201240  .00000069  00000-0  56858-4 0   460
2 12504 082.9600 076.0246 0041176 100.2237 328.8636 13.74214645624788
